$$SOE
2460154.500000000, A.D. 2023-Jul-29 00:00:00.0000, -1.444776395142337E+08, -3.948898890446447E+08, 4.625738930029589E+07,
2460161.500000000, A.D. 2023-Aug-05 00:00:00.0000, -1.345071706968739E+08, -3.984154012087722E+08, 4.593374564871265E+07,
2460168.500000000, A.D. 2023-Aug-12 00:00:00.0000, -1.244504944668502E+08, -4.016854074849977E+08, 4.558064418717998E+07,
2460175.500000000, A.D. 2023-Aug-19 00:00:00.0000, -1.143140490667650E+08, -4.046977690922540E+08, 4.519830654609852E+07,
2460182.500000000, A.D. 2023-Aug-26 00:00:00.0000, -1.041043223634394E+08, -4.074505000517153E+08, 4.478697180445568E+07,
2460189.500000000, A.D. 2023-Sep-02 00:00:00.0000, -9.382784865754330E+07, -4.099417682991918E+08, 4.434689638664486E+07,
2460196.500000000, A.D. 2023-Sep-09 00:00:00.0000, -8.349120545855126E+07, -4.121698968652835E+08, 4.387835394238874E+07,
2460203.500000000, A.D. 2023-Sep-16 00:00:00.0000, -7.310101005601178E+07, -4.141333651814013E+08, 4.338163518968020E+07,
2460210.500000000, A.D. 2023-Sep-23 00:00:00.0000, -6.266391547034060E+07, -4.158308102246887E+08, 4.285704770606218E+07,
2460217.500000000, A.D. 2023-Sep-30 00:00:00.0000, -5.218660612240493E+07, -4.172610263104473E+08, 4.230491579671076E+07,
2460224.500000000, A.D. 2023-Oct-07 00:00:00.0000, -4.167579557506967E+07, -4.184229640731768E+08, 4.172558061063881E+07,
2460231.500000000, A.D. 2023-Oct-14 00:00:00.0000, -3.113822530533606E+07, -4.193157319476469E+08, 4.111940013857903E+07,
2460238.500000000, A.D. 2023-Oct-21 00:00:00.0000, -2.058066127705603E+07, -4.199385985474211E+08, 4.048674892751731E+07,
2460245.500000000, A.D. 2023-Oct-28 00:00:00.0000, -1.000988973820230E+07, -4.202909936812539E+08, 3.982801782765613E+07,
2460252.500000000, A.D. 2023-Nov-04 00:00:00.0000, 5.672865073329798E+05, -4.203725087772140E+08, 3.914361382380226E+07,
2460259.500000000, A.D. 2023-Nov-11 00:00:00.0000, 1.114405153110025E+07, -4.201828973132308E+08, 3.843395988602380E+07,
2460266.500000000, A.D. 2023-Nov-18 00:00:00.0000, 2.171357963426282E+07, -4.197220753167914E+08, 3.769949481421249E+07,
2460273.500000000, A.D. 2023-Nov-25 00:00:00.0000, 3.226903869782236E+07, -4.189901219092948E+08, 3.694067307158422E+07,
2460280.500000000, A.D. 2023-Dec-02 00:00:00.0000, 4.280359355799296E+07, -4.179872799045160E+08, 3.615796460346498E+07,
2460287.500000000, A.D. 2023-Dec-09 00:00:00.0000, 5.331040948557403E+07, -4.167139565191122E+08, 3.535185462942170E+07,
2460294.500000000, A.D. 2023-Dec-16 00:00:00.0000, 6.378265605739906E+07, -4.151707241821973E+08, 3.452284338354097E+07,
2460301.500000000, A.D. 2023-Dec-23 00:00:00.0000, 7.421351176821113E+07, -4.133583207560294E+08, 3.367144582714027E+07,
2460308.500000000, A.D. 2023-Dec-30 00:00:00.0000, 8.459616804215351E+07, -4.112776481171836E+08, 3.279819154238869E+07,
2460315.500000000, A.D. 2024-Jan-06 00:00:00.0000, 9.492383087095927E+07, -4.089297714559240E+08, 3.190362477586506E+07,
2460322.500000000, A.D. 2024-Jan-13 00:00:00.0000, 1.051897232522728E+08, -4.063159210975972E+08, 3.098830419266811E+07,
2460329.500000000, A.D. 2024-Jan-20 00:00:00.0000, 1.153870896527001E+08, -4.034374937603540E+08, 3.005280248062986E+07,
2460336.500000000, A.D. 2024-Jan-27 00:00:00.0000, 1.255092004670955E+08, -4.002960525963552E+08, 2.909770604386738E+07,
2460343.500000000, A.D. 2024-Feb-03 00:00:00.0000, 1.355493560455815E+08, -3.968933269637811E+08, 2.812361474719806E+07,
2460350.500000000, A.D. 2024-Feb-10 00:00:00.0000, 1.455008905654359E+08, -3.932312122193053E+08, 2.713114166192757E+07,
2460357.500000000, A.D. 2024-Feb-17 00:00:00.0000, 1.553571758859297E+08, -3.893117695216669E+08, 2.612091280069514E+07,
2460364.500000000, A.D. 2024-Feb-24 00:00:00.0000, 1.651116254207745E+08, -3.851372256297091E+08, 2.509356683895847E+07,
2460371.500000000, A.D. 2024-Mar-02 00:00:00.0000, 1.747576980557705E+08, -3.807099727247627E+08, 2.404975481730740E+07,
2460378.500000000, A.D. 2024-Mar-09 00:00:00.0000, 1.842889022486072E+08, -3.760325683168887E+08, 2.299013980623673E+07,
2460385.500000000, A.D. 2024-Mar-16 00:00:00.0000, 1.936988007043767E+08, -3.711077350340505E+08, 2.191539651281431E+07,
2460392.500000000, A.D. 2024-Mar-23 00:00:00.0000, 2.029810155218357E+08, -3.659383591812713E+08, 2.082621092897679E+07,
2460399.500000000, A.D. 2024-Mar-30 00:00:00.0000, 2.121292315685244E+08, -3.605274880924353E+08, 1.972328022441469E+07,
2460406.500000000, A.D. 2024-Apr-06 00:00:00.0000, 2.211371983409205E+08, -3.548783296381502E+08, 1.860731258499736E+07,
2460413.500000000, A.D. 2024-Apr-13 00:00:00.0000, 2.299987338619863E+08, -3.489942530511332E+08, 1.747902673946767E+07,
2460420.500000000, A.D. 2024-Apr-20 00:00:00.0000, 2.387077296643710E+08, -3.428787883931050E+08, 1.633915148099701E+07,
2460427.500000000, A.D. 2024-Apr-27 00:00:00.0000, 2.472581553405046E+08, -3.365356252249439E+08, 1.518842527723455E+07,
2460434.500000000, A.D. 2024-May-04 00:00:00.0000, 2.556440627446131E+08, -3.299686111820325E+08, 1.402759590335958E+07,
2460441.500000000, A.D. 2024-May-11 00:00:00.0000, 2.638595900820237E+08, -3.231817505539284E+08, 1.285742006787954E+07,
2460448.500000000, A.D. 2024-May-18 00:00:00.0000, 2.718989659648263E+08, -3.161792028435931E+08, 1.167866302534406E+07,
2460455.500000000, A.D. 2024-May-25 00:00:00.0000, 2.797565134554457E+08, -3.089652813098987E+08, 1.049209817304662E+07,
2460462.500000000, A.D. 2024-Jun-01 00:00:00.0000, 2.874266541545646E+08, -3.015444515468398E+08, 9.298506621421292E+06,
2460469.500000000, A.D. 2024-Jun-08 00:00:00.0000, 2.949039125770065E+08, -2.939213301180145E+08, 8.098676713663846E+06,
2460476.500000000, A.D. 2024-Jun-15 00:00:00.0000, 3.021829212136876E+08, -2.861006826980845E+08, 6.893403502834946E+06,
2460483.500000000, A.D. 2024-Jun-22 00:00:00.0000, 3.092584252729799E+08, -2.780874205450869E+08, 5.683488375258356E+06,
2460490.500000000, A.D. 2024-Jun-29 00:00:00.0000, 3.161252849761065E+08, -2.698865971233974E+08, 4.469738866298780E+06,
2460497.500000000, A.D. 2024-Jul-06 00:00:00.0000, 3.227784780463690E+08, -2.615034073449084E+08, 3.252968223885491E+06,
2460504.500000000, A.D. 2024-Jul-13 00:00:00.0000, 3.292131043378664E+08, -2.529431866005405E+08, 2.033994771829814E+06,
2460511.500000000, A.D. 2024-Jul-20 00:00:00.0000, 3.354243906154342E+08, -2.442114084315491E+08, 8.136413491711617E+05,
2460518.500000000, A.D. 2024-Jul-27 00:00:00.0000, 3.414076948264271E+08, -2.353136817989067E+08, -4.072651925547719E+05,
2460525.500000000, A.D. 2024-Aug-03 00:00:00.0000, 3.471585101331283E+08, -2.262557483243926E+08, -1.627894489793703E+06,
2460532.500000000, A.D. 2024-Aug-10 00:00:00.0000, 3.526724688668935E+08, -2.170434795064233E+08, -2.847413180825815E+06,
2460539.500000000, A.D. 2024-Aug-17 00:00:00.0000, 3.579453464461488E+08, -2.076828738874505E+08, -4.064985435631454E+06,
2460546.500000000, A.D. 2024-Aug-24 00:00:00.0000, 3.629730652800698E+08, -1.981800541935870E+08, -5.279773506229073E+06,
2460553.500000000, A.D. 2024-Aug-31 00:00:00.0000, 3.677516987665076E+08, -1.885412645056044E+08, -6.490938313223377E+06,
2460560.500000000, A.D. 2024-Sep-07 00:00:00.0000, 3.722774757426482E+08, -1.787728673310778E+08, -7.697640091782056E+06,
2460567.500000000, A.D. 2024-Sep-14 00:00:00.0000, 3.765467854694762E+08, -1.688813395778658E+08, -8.899039023189396E+06,
2460574.500000000, A.D. 2024-Sep-21 00:00:00.0000, 3.805561811196335E+08, -1.588732670157004E+08, -1.009429563174745E+07,
2460581.500000000, A.D. 2024-Sep-28 00:00:00.0000, 3.843023812771626E+08, -1.487553404548977E+08, -1.128257116597776E+07,
2460588.500000000, A.D. 2024-Oct-05 00:00:00.0000, 3.877822731120728E+08, -1.385343536399141E+08, -1.246302830060989E+07,
2460595.500000000, A.D. 2024-Oct-12 00:00:00.0000, 3.909929168638784E+08, -1.282171998767218E+08, -1.363483188253316E+07,
2460602.500000000, A.D. 2024-Oct-19 00:00:00.0000, 3.939315498789491E+08, -1.178108676654367E+08, -1.479714958191171E+07,
2460609.500000000, A.D. 2024-Oct-26 00:00:00.0000, 3.965955901644295E+08, -1.073224361407568E+08, -1.594915251063681E+07,
2460616.500000000, A.D. 2024-Nov-02 00:00:00.0000, 3.989826397107143E+08, -9.675907046980189E+07, -1.709001584346185E+07,
2460623.500000000, A.D. 2024-Nov-09 00:00:00.0000, 4.010904876734934E+08, -8.612801718817994E+07, -1.821891944856006E+07,
2460630.500000000, A.D. 2024-Nov-16 00:00:00.0000, 4.029171134351458E+08, -7.543659947623840E+07, -1.933504852938701E+07,
2460637.500000000, A.D. 2024-Nov-23 00:00:00.0000, 4.044606895849074E+08, -6.469221242834698E+07, -2.043759428570734E+07,
2460644.500000000, A.D. 2024-Nov-30 00:00:00.0000, 4.057195850160718E+08, -5.390231836069322E+07, -2.152575461574557E+07,
2460651.500000000, A.D. 2024-Dec-07 00:00:00.0000, 4.066923685475586E+08, -4.307444173735150E+07, -2.259873486263382E+07,
2460658.500000000, A.D. 2024-Dec-14 00:00:00.0000, 4.073778123726095E+08, -3.221616248787815E+07, -2.365574844069315E+07,
2460665.500000000, A.D. 2024-Dec-21 00:00:00.0000, 4.077748930147703E+08, -2.133510895682686E+07, -2.469601722922800E+07,
2460672.500000000, A.D. 2024-Dec-28 00:00:00.0000, 4.078827917618269E+08, -1.043895345704607E+07, -2.571877215664247E+07,
2460679.500000000, A.D. 2025-Jan-04 00:00:00.0000, 4.077008971690913E+08, 4.645919447213337E+05, -2.672325401815693E+07,
2460686.500000000, A.D. 2025-Jan-11 00:00:00.0000, 4.072288078052713E+08, 1.136778106531718E+07, -2.770871422347731E+07,
2460693.500000000, A.D. 2025-Jan-18 00:00:00.0000, 4.064663343185998E+08, 2.226283974160905E+07, -2.867441546442118E+07,
2460700.500000000, A.D. 2025-Jan-25 00:00:00.0000, 4.054135010603774E+08, 3.314197198593826E+07, -2.961963236257255E+07,
2460707.500000000, A.D. 2025-Feb-01 00:00:00.0000, 4.040705474487365E+08, 4.399736612528704E+07, -3.054365211568534E+07,
2460714.500000000, A.D. 2025-Feb-08 00:00:00.0000, 4.024379291245845E+08, 5.482120093874110E+07, -3.144577514543052E+07,
2460721.500000000, A.D. 2025-Feb-15 00:00:00.0000, 4.005163189226760E+08, 6.560565176796176E+07, -3.232531574963751E+07,
$$EOE